TRANSPORTER-10 OBJECT AG
1 59128U 24043AG  26068.92552531  .00009498  00000+0  32170-3 0  9997
2 59128  97.5471 205.7101 0009300 226.5958 133.4509 15.30759727111920
STARLINK-32362          
1 61845U 24202A   26068.46841238 -.00000599  00000+0 -12281-4 0  9994
2 61845  42.9981 228.0081 0000194 261.9955  98.0874 15.27573140 76016
